#dP2025  1 20  0  0  0.00000000      97 __u+U IGS20 FIT  IAC
## 2350  86400.00000000   900.00000000 60695 0.0000000000000
+  118   C06C07C08C09C10C11C12C13C14C19C20C21C22C23C24C25C26
+        C27C28C29C30C32C33C34C35C36C37C38C39C40C41C42C43C44
+        C45E02E03E04E05E06E07E08E09E10E11E12E13E14E15E18E19
+        E21E24E25E26E27E29E30E31E33E34E36G01G02G03G04G05G06
+        G07G08G09G10G11G12G13G14G15G16G17G18G19G20G21G22G23
+        G24G25G26G27G28G29G30G31G32J02J03J04R01R02R03R04R05
+        R07R08R09R11R12R14R15R16R17R18R19R20R21R22R24R26  0
++         7  7  7  7  7  7  7  7  6  5  5  5  6  5  5  6  6
++         6  5  5  6  6  5  6  6  5  5  6  6  6  6  6  6  6
++         6  4  4  4  4  4  4  4  4  4  4  4  4  4  4  4  4
++         4  4  3  4  4  4  4  4  4  4  4  4  3  3  3  3  3
++         3  4  5  3  3  3  3  3  4  3  3  3  3  3  3  3  3
++         3  3  3  3  3  3  3  3  3 10 11 11  7  6  6  6  6
++         6  6  6  6  7  7  6  6  6  6  7  7  6  7  6  8  0
%c M  cc GPS ccc cccc cccc cccc cccc ccccc ccccc ccccc ccccc
%c cc cc ccc ccc cccc cccc cccc cccc ccccc ccccc ccccc ccccc
%f  1.2500000  1.025000000  0.00000000000  0.000000000000000
%f  0.0000000  0.000000000  0.00000000000  0.000000000000000
%i    0    0    0    0      0      0      0      0         0
%i    0    0    0    0      0      0      0      0         0
/* INFORMATION & ANALYSIS CENTER (IAC)            FINAL DATA
/* S/V CLOCKS ARE ALIGNED TO GNSS TIME                      
/* G:C1WC2W R:C1PC2P E:C1XC5X C:C2IC6I J:C1CC2S             
/* PCV:IGS20_2317 OL/AL:FES2004  NONE     YN ORB:CoN CLK:CoN
*  2025 01 20  2 45  0.00000000
PC06 -10278.953138  23225.327312  33717.510175    687.215495
PC07 -15193.373247  39136.934185  -5011.843789    190.219823
PC08   2271.964536  34437.711468 -24060.207711    151.007258
PC09   -395.333181  24878.797016  34587.780239   -895.683457
PC10  -9420.857179  39821.722948 -10979.564096   -402.720502
PC11  25046.379793 -11567.900669   4286.819410    345.275486
PC12  24346.871115   1022.018593 -13565.864062   -213.089911
PC13   5435.857321  36223.664677 -20431.366029     64.089728
PC14  14667.418441 -15538.445949  17928.877544   -678.782311
PC19 -11005.227492  23302.933775 -10714.161668   -962.960341
PC20 -15892.600914   7394.443098 -21711.426447   -871.587793
PC21  11556.471634  14876.605825  20611.353095   -904.585471
PC22    467.265435  26981.103815   7157.155917    236.068832
PC23  -7708.578193 -21331.571843 -16269.619050   -958.849374
PC24  22862.937408   3985.823496 -15503.654424    686.648821
PC25  10363.596266 -12641.936665 -22634.606893    621.919513
PC26  21999.140704  17136.540168    264.944269   -408.169031
PC27 -18288.243845  -7819.728450  19552.040577    425.875880
PC28  -2137.382619 -16250.458581  22592.915991    333.450343
PC29 -19179.681533  16855.728950 -11257.011656    391.386382
PC30 -26376.417069   5974.710601   6822.380063     84.178808
PC32 -11630.758629 -14863.054460 -20535.359406   -887.463614
PC33  10924.804671 -23274.048554  10832.520256   -948.374597
PC34  26465.657282  -7204.315819  -5219.017715    611.188509
PC35   1879.732232  16532.644684 -22412.064946    148.823250
PC36 -10387.006613  12615.561287  22631.959270    254.368345
PC37 -21419.457634 -17897.326407   -742.443529   -905.537833
PC38  -5598.813829  29212.263772 -29747.254321    203.876931
PC39 -19032.464604  20920.703042  31238.485454    -10.788760
PC40 -22175.078712  35828.261507  -4057.525744   -115.748314
PC41    113.968382 -27205.897363  -6110.626289   -882.478343
PC42  15987.132458  -5123.043072  22328.388598   -572.112201
PC43  19756.688982 -16661.756780  10549.585111     98.892026
PC44  18558.158232   7294.887275 -19549.948744    716.158713
PC45   7088.259245  21172.535014  16710.234157   -214.067884
PE02   8934.110972  28146.828953  -1869.771066    191.339565
PE03   1806.110189  19865.093634  21867.698766   -167.688988
PE04 -18453.887464  -3808.613071 -22822.319801   -136.766859
PE05 -15521.935264  23875.408161   8080.025784   4820.511897
PE06 -23012.205502   5520.492943 -17788.272573    -72.497893
PE07  23908.169118 -13726.996547  10768.935553   -164.536202
PE08  17918.699945   4399.780344  23141.617445   -403.354710
PE09 -23885.684405  13718.190815 -10854.698721   -744.588006
PE10 -28872.274095  -4204.125479  -4986.295472   -684.383213
PE11 -25557.090806   3045.629818 -14606.035890   -433.160635
PE12 -27572.963258  -9948.214632   4034.117583  -1394.338489
PE13  25864.011940  -2629.369606  14176.638712    -29.356906
PE14 -22728.861887   2970.006998  17249.365646    611.585146
PE15  27327.036038  10337.451976  -4776.677099   -152.111485
PE18  16061.398329   9372.543225 -21161.766977   1018.012185
PE19     -8.738383 -20658.203440 -21193.653841   1259.780311
PE21   4445.730072 -24781.983378 -15579.364986   -641.245691
PE24 -15688.242117   6619.869857  24187.144302  -1222.077263
PE25  -4765.716196  24491.481288  15914.036073     13.439223
PE26   8886.564815 -14147.567213  24447.996307   -149.028471
PE27  15627.985188  -6673.871459 -24244.092566   -560.820745
PE29  15279.132700 -23939.429734  -8371.361587    -63.544965
PE30  17490.792640  14991.592894 -18596.233941  -1154.408795
PE31 -17450.899943 -15158.997214  18491.716701    -51.244192
PE33 -12271.382487 -17064.138313  20853.183496     16.446872
PE34  12720.067815  17000.173469 -20618.507275   -158.685334
PE36  -9352.868408  13785.283550 -24455.626364   -341.512493
PG01  15741.895383  14966.786712 -15286.054139     62.195577
PG02  15150.400949  13111.440384 -17171.403522   -263.634964
PG03  12347.362599  22851.799727   5666.183896    649.326664
PG04   8400.179557  12978.448187  21600.313418    514.626159
PG05  -4524.386474 -24743.150722   8254.282429   -199.533322
PG06  20108.802600  -6985.942501  16038.110065   -130.649013
PG07  25536.477714   7287.426346   4173.257858    -13.402404
PG08   -490.599444  20477.341526 -16789.745461    464.388600
PG09  15614.050543   3910.924169  21048.306471    535.498372
PG10 -13101.941906   6368.255377 -21959.939302   -284.130980
PG11   8627.289398 -13256.239442  21368.491315   -751.163630
PG12  -9550.149182 -24579.972918   3082.751216   -565.465747
PG13  10675.961008 -20988.202472 -12277.721022    694.019440
PG14  15544.735115  -2440.298024 -21367.671374    583.249061
PG15  -2643.892713 -20439.408853 -17201.820817    253.688514
PG16  -2482.957530  23025.474945  12226.222556    -73.568132
PG17  21110.685113 -10434.913876 -12078.361347    466.155156
PG18 -26066.399741  -5616.716848   1089.418366   -657.198018
PG19  20201.313373 -16545.741266  -3439.151330    588.265390
PG20   3580.647621 -19097.596054  18253.198987    366.937908
PG21   8644.897445  14780.658970 -20206.836508    101.383420
PG22  11873.669383 -11279.017331 -20590.222175    -93.176578
PG23 -16914.309819  -9133.904692 -18383.948693    407.290916
PG24 -12684.393204 -14707.250012 -18752.631389   -462.048963
PG25 -16533.172734 -15911.195086  13238.106876    496.467634
PG26  -8615.953755  15589.406752  19402.382005    -55.389826
PG27 -10731.404504  22655.764324  -8378.231230    -32.811117
PG28 -21349.708463   7052.038170  14131.612862   -539.737781
PG29 -15274.219714  -5057.914795  21108.182286   -545.544726
PG30  25475.403497  -1562.973231  -7683.060890   -235.259216
PG31 -14105.742011  11273.375094  19345.688079   -217.482211
PG32 -19883.988160  14981.142411  -8727.291424   -538.327722
PJ02 -28569.790053  24478.515949  24235.776061     -0.670958
PJ03 -31079.705130  16857.079697 -18349.362809     -0.255664
PJ04 -20863.134310  34538.836394  -7583.533915     21.181970
PR01   4729.168342  15655.459274  19583.226878    111.852333
PR02  11689.522292  -1416.615203  22684.440525    -38.295649
PR03  12654.015266 -18258.936114  12644.417167    115.245566
PR04   6937.656831 -24248.782589  -3847.630858    273.301648
PR05  -2538.372549 -17546.562099 -18337.728437    144.027062
PR07 -12559.967912  18440.467701 -12268.902880     99.204316
PR08  -6453.025488  24294.871471   4275.769554     -6.359538
PR09 -18639.284650  -9524.298769  14532.218185    233.115770
PR11   2362.505095  16565.231492  19264.451617     -2.084728
PR12  15697.014930  19934.766732   2570.870377     49.816554
PR14  10290.901242  -5095.375835 -22774.362219     27.619562
PR15  -3680.418273 -17554.559349 -18123.729333     72.018579
PR16 -15698.462795 -19899.737529  -2703.665450     32.595534
PR17  21584.691843  -8780.768195  10345.438569    159.043539
PR18   7901.844873 -11244.425912  21521.376993    182.797345
PR19  -7832.034198  -9112.193124  22505.232698   -306.147472
PR20 -24109.179988   -491.589350   8263.300862   -124.784099
PR21 -22410.965686   8096.039816  -9129.348500   -169.652052
PR22  -6666.129765  11441.859202 -21769.014004    -56.800525
PR24  24302.086871   -824.366859  -7665.851784    -88.905211
PR26  -7329.453643  24346.138744   2196.977454   -131.626422
EOF
